STARLINK-1815           
1 46713U 20073AV  26014.85170532  .00077126  00000+0  13899-2 0  9991
2 46713  53.0481 104.1056 0006609 235.7733 124.2649 15.49106159289280
STARLINK-1816           
1 46714U 20073AW  26015.00002315  .00099404  00000+0  14791-2 0  9998
2 46714  53.0483 101.9087 0006583 265.0362 279.0413 15.54345655  5913
STARLINK-1817           
1 46715U 20073AX  26015.00002315  .00044976  00000+0  10079-2 0  9998
2 46715  53.0528 116.3760 0007484 345.0706  55.1164 15.42980969  5730
STARLINK-1820           
1 46717U 20073AZ  26015.16454266  .00126279  00000+0  14010-2 0  9999
2 46717  53.0467  68.7572 0001607  19.8440 340.2636 15.62058005289811
STARLINK-1821           
1 46718U 20073BA  26014.58335565  .00026732  00000+0  91499-3 0  9995
2 46718  53.0514 119.9372 0002036 274.1239  85.9527 15.30070518289046
STARLINK-1826           
1 46723U 20073BF  26015.00002315  .00095717  00000+0  18117-2 0  9997
2 46723  53.0524  79.6618 0005460   6.4763  18.3417 15.47606493  5847
STARLINK-1828           
1 46725U 20073BH  26014.55712201  .00013568  00000+0  33551-3 0  9994
2 46725  53.0551 134.5734 0001939   6.9475 353.1556 15.40787435288836
STARLINK-1830           
1 46727U 20073BK  26015.20009001  .00046195  00000+0  10411-2 0  9997
2 46727  53.0487  79.7012 0004881 266.2289  93.8158 15.42817054289669
STARLINK-1848           
1 46740U 20074B   26015.16670139  .00189683  00000+0  15045-2 0  9992
2 46740  53.0409 162.9459 0002867 264.8952  56.8847 15.70188046  5776
STARLINK-1892           
1 46743U 20074E   26014.74629586  .00050413  00000+0  13429-2 0  9990
2 46743  53.0495 189.9973 0011355 156.6842 203.4678 15.37649634288742
STARLINK-1894           
1 46744U 20074F   26015.16670139  .00121689  00000+0  18690-2 0  9997
2 46744  53.0489 181.2942 0009918 172.0471  50.0804 15.53344541  5841
STARLINK-1905           
1 46746U 20074H   26015.00002315  .00111268  00000+0  20272-2 0  9998
2 46746  53.0493 183.5538 0011310 162.5746 122.6909 15.48574910  5708
STARLINK-1911           
1 46749U 20074L   26014.73402648  .00032077  00000+0  47931-3 0  9995
2 46749  53.0515 182.4764 0011783 165.5267 194.6083 15.54686764288848
STARLINK-1922           
1 46753U 20074Q   26015.00002315  .00115306  00000+0  20736-2 0  9998
2 46753  53.0498 183.8759 0012826 164.5466 118.8706 15.48909669  5708
STARLINK-1928           
1 46758U 20074V   26015.16670139  .00086585  00000+0  14129-2 0  9990
2 46758  53.0490 185.2967 0012495 163.7526 333.8879 15.51794952  5882
STARLINK-1832           
1 46780U 20074AT  26015.16670139  .00117547  00000+0  16599-2 0  9991
2 46780  53.0490 170.6220 0007152 191.8901 262.3499 15.55687567  5948
