[{"OBJECT_NAME":"STARLINK-1815","OBJECT_ID":"2020-073AV","EPOCH":"2026-01-14T20:26:27.339648","MEAN_MOTION":15.49106159,"ECCENTRICITY":0.0006609,"INCLINATION":53.0481,"RA_OF_ASC_NODE":104.1056,"ARG_OF_PERICENTER":235.7733,"MEAN_ANOMALY":124.2649,"EPHEMERIS_TYPE":0,"CLASSIFICATION_TYPE":"U","NORAD_CAT_ID":46713,"ELEMENT_SET_NO":999,"REV_AT_EPOCH":28928,"BSTAR":0.0013899,"MEAN_MOTION_DOT":0.00077126,"MEAN_MOTION_DDOT":0},{"OBJECT_NAME":"STARLINK-1816","OBJECT_ID":"2020-073AW","EPOCH":"2026-01-15T00:00:02.000160","MEAN_MOTION":15.54345655,"ECCENTRICITY":0.00065838,"INCLINATION":53.0483,"RA_OF_ASC_NODE":101.9087,"ARG_OF_PERICENTER":265.0362,"MEAN_ANOMALY":279.0413,"EPHEMERIS_TYPE":0,"CLASSIFICATION_TYPE":"U","NORAD_CAT_ID":46714,"ELEMENT_SET_NO":999,"REV_AT_EPOCH":591,"BSTAR":0.0014791467,"MEAN_MOTION_DOT":0.00099404,"MEAN_MOTION_DDOT":0},{"OBJECT_NAME":"STARLINK-1817","OBJECT_ID":"2020-073AX","EPOCH":"2026-01-15T00:00:02.000160","MEAN_MOTION":15.42980969,"ECCENTRICITY":0.00074846,"INCLINATION":53.0528,"RA_OF_ASC_NODE":116.376,"ARG_OF_PERICENTER":345.0706,"MEAN_ANOMALY":55.1164,"EPHEMERIS_TYPE":0,"CLASSIFICATION_TYPE":"U","NORAD_CAT_ID":46715,"ELEMENT_SET_NO":999,"REV_AT_EPOCH":573,"BSTAR":0.0010079329,"MEAN_MOTION_DOT":0.00044976,"MEAN_MOTION_DDOT":0},{"OBJECT_NAME":"STARLINK-1820","OBJECT_ID":"2020-073AZ","EPOCH":"2026-01-15T03:56:56.485824","MEAN_MOTION":15.62058005,"ECCENTRICITY":0.0001607,"INCLINATION":53.0467,"RA_OF_ASC_NODE":68.7572,"ARG_OF_PERICENTER":19.844,"MEAN_ANOMALY":340.2636,"EPHEMERIS_TYPE":0,"CLASSIFICATION_TYPE":"U","NORAD_CAT_ID":46717,"ELEMENT_SET_NO":999,"REV_AT_EPOCH":28981,"BSTAR":0.001401,"MEAN_MOTION_DOT":0.00126279,"MEAN_MOTION_DDOT":0},{"OBJECT_NAME":"STARLINK-1821","OBJECT_ID":"2020-073BA","EPOCH":"2026-01-14T14:00:01.928160","MEAN_MOTION":15.30070518,"ECCENTRICITY":0.0002036,"INCLINATION":53.0514,"RA_OF_ASC_NODE":119.9372,"ARG_OF_PERICENTER":274.1239,"MEAN_ANOMALY":85.9527,"EPHEMERIS_TYPE":0,"CLASSIFICATION_TYPE":"U","NORAD_CAT_ID":46718,"ELEMENT_SET_NO":999,"REV_AT_EPOCH":28904,"BSTAR":0.00091499,"MEAN_MOTION_DOT":0.00026732,"MEAN_MOTION_DDOT":0},{"OBJECT_NAME":"STARLINK-1826","OBJECT_ID":"2020-073BF","EPOCH":"2026-01-15T00:00:02.000160","MEAN_MOTION":15.47606493,"ECCENTRICITY":0.00054603,"INCLINATION":53.0524,"RA_OF_ASC_NODE":79.6618,"ARG_OF_PERICENTER":6.4763,"MEAN_ANOMALY":18.3417,"EPHEMERIS_TYPE":0,"CLASSIFICATION_TYPE":"U","NORAD_CAT_ID":46723,"ELEMENT_SET_NO":999,"REV_AT_EPOCH":584,"BSTAR":0.0018116783,"MEAN_MOTION_DOT":0.00095717,"MEAN_MOTION_DDOT":0},{"OBJECT_NAME":"STARLINK-1828","OBJECT_ID":"2020-073BH","EPOCH":"2026-01-14T13:22:15.341664","MEAN_MOTION":15.40787435,"ECCENTRICITY":0.0001939,"INCLINATION":53.0551,"RA_OF_ASC_NODE":134.5734,"ARG_OF_PERICENTER":6.9475,"MEAN_ANOMALY":353.1556,"EPHEMERIS_TYPE":0,"CLASSIFICATION_TYPE":"U","NORAD_CAT_ID":46725,"ELEMENT_SET_NO":999,"REV_AT_EPOCH":28883,"BSTAR":0.00033551,"MEAN_MOTION_DOT":0.00013568,"MEAN_MOTION_DDOT":0},{"OBJECT_NAME":"STARLINK-1830","OBJECT_ID":"2020-073BK","EPOCH":"2026-01-15T04:48:07.776864","MEAN_MOTION":15.42817054,"ECCENTRICITY":0.0004881,"INCLINATION":53.0487,"RA_OF_ASC_NODE":79.7012,"ARG_OF_PERICENTER":266.2289,"MEAN_ANOMALY":93.8158,"EPHEMERIS_TYPE":0,"CLASSIFICATION_TYPE":"U","NORAD_CAT_ID":46727,"ELEMENT_SET_NO":999,"REV_AT_EPOCH":28966,"BSTAR":0.0010411,"MEAN_MOTION_DOT":0.00046195,"MEAN_MOTION_DDOT":0},{"OBJECT_NAME":"STARLINK-1848","OBJECT_ID":"2020-074B","EPOCH":"2026-01-15T04:00:03.000096","MEAN_MOTION":15.70188046,"ECCENTRICITY":0.0002867,"INCLINATION":53.0409,"RA_OF_ASC_NODE":162.9459,"ARG_OF_PERICENTER":264.8952,"MEAN_ANOMALY":56.8847,"EPHEMERIS_TYPE":0,"CLASSIFICATION_TYPE":"U","NORAD_CAT_ID":46740,"ELEMENT_SET_NO":999,"REV_AT_EPOCH":577,"BSTAR":0.0015045,"MEAN_MOTION_DOT":0.00189683,"MEAN_MOTION_DDOT":0},{"OBJECT_NAME":"STARLINK-1892","OBJECT_ID":"2020-074E","EPOCH":"2026-01-14T17:54:39.962304","MEAN_MOTION":15.37649634,"ECCENTRICITY":0.0011355,"INCLINATION":53.0495,"RA_OF_ASC_NODE":189.9973,"ARG_OF_PERICENTER":156.6842,"MEAN_ANOMALY":203.4678,"EPHEMERIS_TYPE":0,"CLASSIFICATION_TYPE":"U","NORAD_CAT_ID":46743,"ELEMENT_SET_NO":999,"REV_AT_EPOCH":28874,"BSTAR":0.0013429,"MEAN_MOTION_DOT":0.00050413,"MEAN_MOTION_DDOT":0},{"OBJECT_NAME":"STARLINK-1894","OBJECT_ID":"2020-074F","EPOCH":"2026-01-15T04:00:03.000096","MEAN_MOTION":15.53344541,"ECCENTRICITY":0.0009918,"INCLINATION":53.0489,"RA_OF_ASC_NODE":181.2942,"ARG_OF_PERICENTER":172.0471,"MEAN_ANOMALY":50.0804,"EPHEMERIS_TYPE":0,"CLASSIFICATION_TYPE":"U","NORAD_CAT_ID":46744,"ELEMENT_SET_NO":999,"REV_AT_EPOCH":584,"BSTAR":0.001869,"MEAN_MOTION_DOT":0.00121689,"MEAN_MOTION_DDOT":0},{"OBJECT_NAME":"STARLINK-1905","OBJECT_ID":"2020-074H","EPOCH":"2026-01-15T00:00:02.000160","MEAN_MOTION":15.4857491,"ECCENTRICITY":0.001131,"INCLINATION":53.0493,"RA_OF_ASC_NODE":183.5538,"ARG_OF_PERICENTER":162.5746,"MEAN_ANOMALY":122.6909,"EPHEMERIS_TYPE":0,"CLASSIFICATION_TYPE":"U","NORAD_CAT_ID":46746,"ELEMENT_SET_NO":999,"REV_AT_EPOCH":570,"BSTAR":0.0020272477,"MEAN_MOTION_DOT":0.00111268,"MEAN_MOTION_DDOT":0},{"OBJECT_NAME":"STARLINK-1911","OBJECT_ID":"2020-074L","EPOCH":"2026-01-14T17:36:59.887872","MEAN_MOTION":15.54686764,"ECCENTRICITY":0.0011783,"INCLINATION":53.0515,"RA_OF_ASC_NODE":182.4764,"ARG_OF_PERICENTER":165.5267,"MEAN_ANOMALY":194.6083,"EPHEMERIS_TYPE":0,"CLASSIFICATION_TYPE":"U","NORAD_CAT_ID":46749,"ELEMENT_SET_NO":999,"REV_AT_EPOCH":28884,"BSTAR":0.00047931,"MEAN_MOTION_DOT":0.00032077,"MEAN_MOTION_DDOT":0},{"OBJECT_NAME":"STARLINK-1922","OBJECT_ID":"2020-074Q","EPOCH":"2026-01-15T00:00:02.000160","MEAN_MOTION":15.48909669,"ECCENTRICITY":0.00128262,"INCLINATION":53.0498,"RA_OF_ASC_NODE":183.8759,"ARG_OF_PERICENTER":164.5466,"MEAN_ANOMALY":118.8706,"EPHEMERIS_TYPE":0,"CLASSIFICATION_TYPE":"U","NORAD_CAT_ID":46753,"ELEMENT_SET_NO":999,"REV_AT_EPOCH":570,"BSTAR":0.0020735557,"MEAN_MOTION_DOT":0.00115306,"MEAN_MOTION_DDOT":0},{"OBJECT_NAME":"STARLINK-1928","OBJECT_ID":"2020-074V","EPOCH":"2026-01-15T04:00:03.000096","MEAN_MOTION":15.51794952,"ECCENTRICITY":0.0012495,"INCLINATION":53.049,"RA_OF_ASC_NODE":185.2967,"ARG_OF_PERICENTER":163.7526,"MEAN_ANOMALY":333.8879,"EPHEMERIS_TYPE":0,"CLASSIFICATION_TYPE":"U","NORAD_CAT_ID":46758,"ELEMENT_SET_NO":999,"REV_AT_EPOCH":588,"BSTAR":0.0014129,"MEAN_MOTION_DOT":0.00086585,"MEAN_MOTION_DDOT":0},{"OBJECT_NAME":"STARLINK-1832","OBJECT_ID":"2020-074AT","EPOCH":"2026-01-15T04:00:03.000096","MEAN_MOTION":15.55687567,"ECCENTRICITY":0.0007152,"INCLINATION":53.049,"RA_OF_ASC_NODE":170.622,"ARG_OF_PERICENTER":191.8901,"MEAN_ANOMALY":262.3499,"EPHEMERIS_TYPE":0,"CLASSIFICATION_TYPE":"U","NORAD_CAT_ID":46780,"ELEMENT_SET_NO":999,"REV_AT_EPOCH":594,"BSTAR":0.0016599,"MEAN_MOTION_DOT":0.00117547,"MEAN_MOTION_DDOT":0}]
